OBJECT_NAME,OBJECT_ID,EPOCH,MEAN_MOTION,ECCENTRICITY,INCLINATION,RA_OF_ASC_NODE,ARG_OF_PERICENTER,MEAN_ANOMALY,EPHEMERIS_TYPE,CLASSIFICATION_TYPE,NORAD_CAT_ID,ELEMENT_SET_NO,REV_AT_EPOCH,BSTAR,MEAN_MOTION_DOT,MEAN_MOTION_DDOT
INTELSAT 23 (IS-23),2012-057A,2026-07-14T18:17:55.370688,1.00273521,.00003615,0.0148,33.7286,157.7686,322.6165,0,U,38867,999,5023,0,-.293E-5,0
BEIDOU-2 G6,2012-059A,2026-07-14T18:56:58.341696,1.00273816,.00087599,4.4884,73.2179,327.1353,260.5160,0,U,38953,999,5018,0,-.187E-5,0
LUCH-5B,2012-061A,2026-07-14T09:55:02.132832,1.00270374,.00038926,10.5395,49.6048,146.9492,228.2086,0,U,38977,999,4988,0,-.15E-5,0
YAMAL 300K,2012-061B,2026-07-14T19:25:10.637760,1.00268360,.0000666,0.0174,43.1571,211.8905,151.8731,0,U,38978,999,4990,0,0,0
STAR ONE C3,2012-062A,2026-07-14T18:11:25.992672,1.00266559,.00023629,0.0246,52.6071,76.7626,1.1115,0,U,38991,999,5004,0,0,0
EUTELSAT 21B,2012-062B,2026-07-14T20:08:08.889792,1.00270145,.00032474,0.0666,12.6636,107.6667,135.9621,0,U,38992,999,5010,0,.121E-5,0
ECHOSTAR 16,2012-065A,2026-07-14T18:15:18.121824,1.00269771,.00021139,0.0168,59.1017,49.5068,36.3321,0,U,39008,999,4992,0,-.29E-5,0
ZHONGXING-12,2012-067A,2026-07-15T00:20:19.023648,1.00271674,.00025728,0.0335,94.1996,18.0806,273.1608,0,U,39017,999,4978,0,-.216E-5,0
EUTELSAT 70B,2012-069A,2026-07-14T22:17:21.643872,1.00271356,.00036472,0.0608,0.1369,112.9699,224.5082,0,U,39020,999,4978,0,-.52E-6,0
YAMAL 402,2012-070A,2026-07-14T15:23:17.932992,1.00271148,.00035566,1.3331,83.8127,25.9265,108.4710,0,U,39022,999,4967,0,.77E-6,0
SKYNET 5D,2012-075A,2026-07-14T23:07:11.807040,1.00270012,.00033815,0.0682,357.2660,126.1989,208.8951,0,U,39034,999,4943,0,.91E-6,0
MEXSAT 3,2012-075B,2026-07-14T16:17:36.890016,1.00268796,.00009912,0.0195,53.1788,54.4542,314.5345,0,U,39035,999,732,0,0,0
TDRS 11,2013-004A,2026-07-14T19:26:03.054912,1.00279282,.00045421,3.5610,31.6908,31.5791,346.7514,0,U,39070,999,4697,0,.72E-6,0
AMAZONAS 3,2013-006A,2026-07-14T18:15:40.586688,1.00270159,.00032738,0.0087,227.0979,285.1864,353.2641,0,U,39078,999,4519,0,0,0
AZERSPACE 1,2013-006B,2026-07-14T20:37:07.381344,1.00269436,.00017845,0.0231,46.1642,103.6392,138.1868,0,U,39079,999,4908,0,0,0
SBIRS GEO-2 (USA 241),2013-011A,2026-07-14T22:44:24.323136,1.00271309,.00019878,4.5475,52.5080,54.8551,116.7384,0,U,39120,999,4881,0,-.297E-5,0
EUTELSAT 117 WEST A,2013-012A,2026-07-14T22:49:14.219328,1.00273822,.00028041,0.0514,271.8549,207.0329,39.4223,0,U,39122,999,4871,0,-.22E-6,0
ANIK G1,2013-014A,2026-07-14T16:19:44.186592,1.00271318,.00016363,0.0463,249.4083,235.8278,304.9266,0,U,39127,999,4852,0,-.82E-6,0
ZHONGXING-11,2013-020A,2026-07-14T22:17:11.399424,1.00270823,.00020158,0.0586,276.9267,166.1137,281.9274,0,U,39157,999,4817,0,-.299E-5,0
EUTELSAT 7B,2013-022A,2026-07-14T18:35:01.879584,1.00273520,.00035679,0.0706,336.9677,69.0094,172.4225,0,U,39163,999,4822,0,.4E-6,0
WGS F5 (USA 243),2013-024A,2026-07-14T18:18:02.858976,1.00268761,.00003042,0.0248,60.5661,193.4664,260.6072,0,U,39168,999,4745,0,0,0
SES-6,2013-026A,2026-07-14T18:21:25.035840,1.00273033,.00025474,0.0252,330.9296,123.2692,73.2673,0,U,39172,999,4800,0,-.269E-5,0
IRNSS-1A,2013-034A,2026-07-10T17:17:25.712736,1.00281941,.0017567,35.7704,63.5328,183.4462,356.2994,0,U,39199,999,4760,0,.47E-6,0
MUOS-2,2013-036A,2026-07-14T19:22:03.436608,1.00272329,.00526674,5.0486,45.5543,176.3687,173.2062,0,U,39206,999,4746,0,-.24E-6,0
ALPHASAT,2013-038A,2026-07-13T23:50:56.493024,1.00271961,.00022854,2.9990,1.1529,138.9239,174.3915,0,U,39215,999,4428,0,.127E-5,0
INSAT-3D,2013-038B,2026-07-14T22:38:51.619200,1.00268573,.00005149,1.9956,82.1879,83.0220,236.8018,0,U,39216,999,4735,0,-.35E-5,0
WGS F6 (USA 244),2013-041A,2026-07-14T17:54:27.620928,1.00265587,.00001848,0.0183,35.9404,260.4039,129.6793,0,U,39222,999,4633,0,.81E-6,0
ES'HAIL 1,2013-044A,2026-07-14T13:32:21.157728,1.00274643,.0002153,0.0508,343.0754,133.9068,44.0708,0,U,39233,999,4690,0,.136E-5,0
GSAT-7,2013-044B,2026-07-14T22:12:21.884256,1.00271273,.00032233,0.1502,89.5969,176.7164,73.5066,0,U,39234,999,4553,0,-.85E-6,0
AMOS-4,2013-045A,2026-07-14T22:27:21.693600,1.00270579,.00021904,0.0298,255.1256,188.7523,250.7512,0,U,39237,999,4723,0,-.1E-7,0
AEHF-3 (USA 246),2013-050A,2026-07-14T22:37:59.641824,1.00270981,.00884553,5.3599,66.9290,187.6943,253.3952,0,U,39256,999,4593,0,.17E-6,0
ASTRA 2E,2013-056A,2026-07-14T19:56:38.694624,1.00268771,.00026934,0.0772,312.7037,154.5572,153.0683,0,U,39285,999,4669,0,.142E-5,0
