INTELSAT 23 (IS-23)     
1 38867U 12057A   26195.76244642 -.00000293  00000+0  00000+0 0  9998
2 38867   0.0148  33.7286 0000361 157.7686 322.6165  1.00273521 50232
BEIDOU-2 G6             
1 38953U 12059A   26195.78956414 -.00000187  00000+0  00000+0 0  9997
2 38953   4.4884  73.2179 0008759 327.1353 260.5160  1.00273816 50182
LUCH-5B                 
1 38977U 12061A   26195.41321913 -.00000150  00000+0  00000+0 0  9996
2 38977  10.5395  49.6048 0003892 146.9492 228.2086  1.00270374 49888
YAMAL 300K              
1 38978U 12061B   26195.80915090  .00000000  00000+0  00000+0 0  9998
2 38978   0.0174  43.1571 0000666 211.8905 151.8731  1.00268360 49908
STAR ONE C3             
1 38991U 12062A   26195.75793973  .00000000  00000+0  00000+0 0  9992
2 38991   0.0246  52.6071 0002362  76.7626   1.1115  1.00266559 50044
EUTELSAT 21B            
1 38992U 12062B   26195.83899178  .00000121  00000+0  00000+0 0  9990
2 38992   0.0666  12.6636 0003247 107.6667 135.9621  1.00270145 50107
ECHOSTAR 16             
1 39008U 12065A   26195.76062641 -.00000290  00000+0  00000+0 0  9999
2 39008   0.0168  59.1017 0002113  49.5068  36.3321  1.00269771 49924
ZHONGXING-12            
1 39017U 12067A   26196.01410907 -.00000216  00000+0  00000+0 0  9990
2 39017   0.0335  94.1996 0002572  18.0806 273.1608  1.00271674 49783
EUTELSAT 70B            
1 39020U 12069A   26195.92872273 -.00000052  00000+0  00000+0 0  9991
2 39020   0.0608   0.1369 0003647 112.9699 224.5082  1.00271356 49782
YAMAL 402               
1 39022U 12070A   26195.64117978  .00000077  00000+0  00000+0 0  9994
2 39022   1.3331  83.8127 0003556  25.9265 108.4710  1.00271148 49677
SKYNET 5D               
1 39034U 12075A   26195.96333110  .00000091  00000+0  00000+0 0  9991
2 39034   0.0682 357.2660 0003381 126.1989 208.8951  1.00270012 49433
MEXSAT 3                
1 39035U 12075B   26195.67889919  .00000000  00000+0  00000+0 0  9993
2 39035   0.0195  53.1788 0000991  54.4542 314.5345  1.00268796  7328
TDRS 11                 
1 39070U 13004A   26195.80975758  .00000072  00000+0  00000+0 0  9996
2 39070   3.5610  31.6908 0004542  31.5791 346.7514  1.00279282 46971
AMAZONAS 3              
1 39078U 13006A   26195.76088642  .00000000  00000+0  00000+0 0  9999
2 39078   0.0087 227.0979 0003273 285.1864 353.2641  1.00270159 45197
AZERSPACE 1             
1 39079U 13006B   26195.85911321  .00000000  00000+0  00000+0 0  9999
2 39079   0.0231  46.1642 0001784 103.6392 138.1868  1.00269436 49080
SBIRS GEO-2 (USA 241)   
1 39120U 13011A   26195.94750374 -.00000297  00000+0  00000+0 0  9990
2 39120   4.5475  52.5080 0001987  54.8551 116.7384  1.00271309 48819
EUTELSAT 117 WEST A     
1 39122U 13012A   26195.95085902 -.00000022  00000+0  00000+0 0  9998
2 39122   0.0514 271.8549 0002804 207.0329  39.4223  1.00273822 48710
ANIK G1                 
1 39127U 13014A   26195.68037253 -.00000082  00000+0  00000+0 0  9997
2 39127   0.0463 249.4083 0001636 235.8278 304.9266  1.00271318 48520
ZHONGXING-11            
1 39157U 13020A   26195.92860416 -.00000299  00000+0  00000+0 0  9999
2 39157   0.0586 276.9267 0002015 166.1137 281.9274  1.00270823 48174
EUTELSAT 7B             
1 39163U 13022A   26195.77432731  .00000040  00000+0  00000+0 0  9999
2 39163   0.0706 336.9677 0003567  69.0094 172.4225  1.00273520 48226
WGS F5 (USA 243)        
1 39168U 13024A   26195.76253309  .00000000  00000+0  00000+0 0  9993
2 39168   0.0248  60.5661 0000304 193.4664 260.6072  1.00268761 47451
SES-6                   
1 39172U 13026A   26195.76487310 -.00000269  00000+0  00000+0 0  9999
2 39172   0.0252 330.9296 0002547 123.2692  73.2673  1.00273033 48007
IRNSS-1A                
1 39199U 13034A   26191.72043649  .00000047  00000+0  00000+0 0  9995
2 39199  35.7704  63.5328 0017567 183.4462 356.2994  1.00281941 47601
MUOS-2                  
1 39206U 13036A   26195.80698422 -.00000024  00000+0  00000+0 0  9990
2 39206   5.0486  45.5543 0052667 176.3687 173.2062  1.00272329 47463
ALPHASAT                
1 39215U 13038A   26194.99370941  .00000127  00000+0  00000+0 0  9997
2 39215   2.9990   1.1529 0002285 138.9239 174.3915  1.00271961 44286
INSAT-3D                
1 39216U 13038B   26195.94365300 -.00000350  00000+0  00000+0 0  9996
2 39216   1.9956  82.1879 0000514  83.0220 236.8018  1.00268573 47352
WGS F6 (USA 244)        
1 39222U 13041A   26195.74615302  .00000081  00000+0  00000+0 0  9995
2 39222   0.0183  35.9404 0000184 260.4039 129.6793  1.00265587 46331
ES'HAIL 1               
1 39233U 13044A   26195.56413377  .00000136  00000+0  00000+0 0  9999
2 39233   0.0508 343.0754 0002153 133.9068  44.0708  1.00274643 46901
GSAT-7                  
1 39234U 13044B   26195.92525329 -.00000085  00000+0  00000+0 0  9995
2 39234   0.1502  89.5969 0003223 176.7164  73.5066  1.00271273 45536
AMOS-4                  
1 39237U 13045A   26195.93566775 -.00000001  00000+0  00000+0 0  9998
2 39237   0.0298 255.1256 0002190 188.7523 250.7512  1.00270579 47236
AEHF-3 (USA 246)        
1 39256U 13050A   26195.94305141  .00000017  00000+0  00000+0 0  9990
2 39256   5.3599  66.9290 0088455 187.6943 253.3952  1.00270981 45936
ASTRA 2E                
1 39285U 13056A   26195.83100341  .00000142  00000+0  00000+0 0  9990
2 39285   0.0772 312.7037 0002693 154.5572 153.0683  1.00268771 46690
